STARLINK-35405          
1 66440U 25259U   25333.25002315 -.01981233  00000+0 -24006-1 0  9998
2 66440  42.9994 126.3105 0001809 275.4731 161.3782 15.63118329  4117
STARLINK-35426          
1 66441U 25259V   25333.25002315 -.01997986  00000+0 -24231-1 0  9991
2 66441  42.9992 126.3039 0001587 273.9684 164.7967 15.63128278  4111
STARLINK-34724          
1 66442U 25259W   25333.25002315 -.01979460  00000+0 -23984-1 0  9993
2 66442  42.9998 126.3004 0001724 277.7850 162.9011 15.63117191  4112
STARLINK-35219          
1 66443U 25259X   25333.25002315 -.01977795  00000+0 -23960-1 0  9997
2 66443  42.9996 126.2955 0001763 278.3215 164.2799 15.63117378  4003
STARLINK-35360          
1 66444U 25259Y   25333.25002315 -.01996566  00000+0 -24214-1 0  9998
2 66444  42.9995 126.2795 0001640 274.0526 174.3006 15.63124899  4118
STARLINK-34698          
1 66445U 25259Z   25333.25002315 -.01979225  00000+0 -23978-1 0  9998
2 66445  42.9996 126.2901 0001833 278.1636 166.3527 15.63118794  4004
STARLINK-34986          
1 66446U 25259AA  25333.25002315 -.02003365  00000+0 -24302-1 0  9995
2 66446  42.9995 126.2839 0001608 275.4633 170.9692 15.63130979  4116
STARLINK-34851          
1 66447U 25259AB  25333.25002315 -.01987615  00000+0 -24093-1 0  9991
2 66447  42.9998 126.2746 0001665 273.9428 176.3274 15.63121202  4008
STARLINK-35355          
1 66448U 25259AC  25333.25002315 -.01999870  00000+0 -24256-1 0  9999
2 66448  42.9998 126.2703 0001663 274.8146 177.3707 15.63127717  4118
STARLINK-34720          
1 66449U 25259AD  25333.25002315 -.02001301  00000+0 -24275-1 0  9995
2 66449  42.9998 126.2651 0001682 273.1202 180.9809 15.63129194  4009
STARLINK-35334          
1 66450U 25259AE  25333.25002315 -.01997921  00000+0 -24231-1 0  9990
2 66450  42.9998 126.2595 0001556 273.1269 182.8924 15.63127122  4111
VIASAT-3 F2             
1 66454U 25261A   25330.74705039 -.00000051  00000+0  00000+0 0  9994
2 66454   5.5832 293.8608 2341324 182.7714 334.4159  2.28187844   288
